[{"OBJECT_NAME":"ONEWEB-0057","OBJECT_ID":"2020-008AF","EPOCH":"2025-11-11T07:11:16.814688","MEAN_MOTION":13.10373949,"ECCENTRICITY":0.00013355,"INCLINATION":87.8791,"RA_OF_ASC_NODE":79.7086,"ARG_OF_PERICENTER":103.3871,"MEAN_ANOMALY":256.7405,"EPHEMERIS_TYPE":0,"CLASSIFICATION_TYPE":"U","NORAD_CAT_ID":45160,"ELEMENT_SET_NO":999,"REV_AT_EPOCH":27981,"BSTAR":-0.0015359496,"MEAN_MOTION_DOT":-5.23e-6,"MEAN_MOTION_DDOT":0},{"OBJECT_NAME":"ONEWEB-0058","OBJECT_ID":"2020-008AG","EPOCH":"2025-11-11T06:52:22.034496","MEAN_MOTION":13.10369075,"ECCENTRICITY":0.00018281,"INCLINATION":87.8792,"RA_OF_ASC_NODE":79.7221,"ARG_OF_PERICENTER":101.0742,"MEAN_ANOMALY":259.0591,"EPHEMERIS_TYPE":0,"CLASSIFICATION_TYPE":"U","NORAD_CAT_ID":45161,"ELEMENT_SET_NO":999,"REV_AT_EPOCH":27988,"BSTAR":-0.00030932776,"MEAN_MOTION_DOT":-9.5e-7,"MEAN_MOTION_DDOT":0},{"OBJECT_NAME":"ONEWEB-0059","OBJECT_ID":"2020-008AH","EPOCH":"2025-11-11T06:47:25.009440","MEAN_MOTION":13.10369906,"ECCENTRICITY":0.00016428,"INCLINATION":87.8788,"RA_OF_ASC_NODE":79.7227,"ARG_OF_PERICENTER":102.3054,"MEAN_ANOMALY":257.8258,"EPHEMERIS_TYPE":0,"CLASSIFICATION_TYPE":"U","NORAD_CAT_ID":45162,"ELEMENT_SET_NO":999,"REV_AT_EPOCH":27978,"BSTAR":-5.7036349e-5,"MEAN_MOTION_DOT":-7.0e-8,"MEAN_MOTION_DDOT":0},{"OBJECT_NAME":"ONEWEB-0062","OBJECT_ID":"2020-008AJ","EPOCH":"2025-11-11T07:24:26.375904","MEAN_MOTION":13.10374654,"ECCENTRICITY":0.0001901,"INCLINATION":87.879,"RA_OF_ASC_NODE":79.6943,"ARG_OF_PERICENTER":95.0526,"MEAN_ANOMALY":265.0818,"EPHEMERIS_TYPE":0,"CLASSIFICATION_TYPE":"U","NORAD_CAT_ID":45163,"ELEMENT_SET_NO":999,"REV_AT_EPOCH":27965,"BSTAR":-0.0012508809,"MEAN_MOTION_DOT":-4.24e-6,"MEAN_MOTION_DDOT":0},{"OBJECT_NAME":"ONEWEB-0065","OBJECT_ID":"2020-008AK","EPOCH":"2025-11-11T01:24:53.268768","MEAN_MOTION":13.10788035,"ECCENTRICITY":4.549e-5,"INCLINATION":87.8774,"RA_OF_ASC_NODE":79.7693,"ARG_OF_PERICENTER":154.1393,"MEAN_ANOMALY":205.9758,"EPHEMERIS_TYPE":0,"CLASSIFICATION_TYPE":"U","NORAD_CAT_ID":45164,"ELEMENT_SET_NO":999,"REV_AT_EPOCH":27931,"BSTAR":0.11727718,"MEAN_MOTION_DOT":0.00041383,"MEAN_MOTION_DDOT":0},{"OBJECT_NAME":"ONEWEB-0066","OBJECT_ID":"2020-020A","EPOCH":"2025-11-11T05:50:05.087616","MEAN_MOTION":13.1141568,"ECCENTRICITY":0.00016288,"INCLINATION":87.8868,"RA_OF_ASC_NODE":64.4623,"ARG_OF_PERICENTER":112.0458,"MEAN_ANOMALY":248.0843,"EPHEMERIS_TYPE":0,"CLASSIFICATION_TYPE":"U","NORAD_CAT_ID":45424,"ELEMENT_SET_NO":999,"REV_AT_EPOCH":27411,"BSTAR":-0.00016656081,"MEAN_MOTION_DOT":-4.6e-7,"MEAN_MOTION_DDOT":0},{"OBJECT_NAME":"ONEWEB-0067","OBJECT_ID":"2020-020B","EPOCH":"2025-11-11T06:44:00.044448","MEAN_MOTION":13.11418454,"ECCENTRICITY":0.00015206,"INCLINATION":87.8866,"RA_OF_ASC_NODE":64.3575,"ARG_OF_PERICENTER":105.4198,"MEAN_ANOMALY":254.7098,"EPHEMERIS_TYPE":0,"CLASSIFICATION_TYPE":"U","NORAD_CAT_ID":45425,"ELEMENT_SET_NO":999,"REV_AT_EPOCH":27417,"BSTAR":0.00048247352,"MEAN_MOTION_DOT":1.84e-6,"MEAN_MOTION_DDOT":0},{"OBJECT_NAME":"ONEWEB-0080","OBJECT_ID":"2020-020C","EPOCH":"2025-11-11T06:57:11.538432","MEAN_MOTION":13.11442098,"ECCENTRICITY":0.00027338,"INCLINATION":87.8803,"RA_OF_ASC_NODE":64.45,"ARG_OF_PERICENTER":114.1711,"MEAN_ANOMALY":245.9703,"EPHEMERIS_TYPE":0,"CLASSIFICATION_TYPE":"U","NORAD_CAT_ID":45426,"ELEMENT_SET_NO":999,"REV_AT_EPOCH":27414,"BSTAR":0.0086558743,"MEAN_MOTION_DOT":3.083e-5,"MEAN_MOTION_DDOT":0},{"OBJECT_NAME":"ONEWEB-0090","OBJECT_ID":"2020-020D","EPOCH":"2025-11-11T07:25:18.545952","MEAN_MOTION":13.11414504,"ECCENTRICITY":0.00016842,"INCLINATION":87.8866,"RA_OF_ASC_NODE":64.451,"ARG_OF_PERICENTER":101.1566,"MEAN_ANOMALY":258.9752,"EPHEMERIS_TYPE":0,"CLASSIFICATION_TYPE":"U","NORAD_CAT_ID":45427,"ELEMENT_SET_NO":999,"REV_AT_EPOCH":27411,"BSTAR":0.0010713983,"MEAN_MOTION_DOT":3.92e-6,"MEAN_MOTION_DDOT":0},{"OBJECT_NAME":"ONEWEB-0061","OBJECT_ID":"2020-020E","EPOCH":"2025-11-11T06:21:37.023840","MEAN_MOTION":13.11419049,"ECCENTRICITY":0.00015994,"INCLINATION":87.887,"RA_OF_ASC_NODE":64.4408,"ARG_OF_PERICENTER":104.2305,"MEAN_ANOMALY":255.9001,"EPHEMERIS_TYPE":0,"CLASSIFICATION_TYPE":"U","NORAD_CAT_ID":45428,"ELEMENT_SET_NO":999,"REV_AT_EPOCH":27406,"BSTAR":-0.0010333625,"MEAN_MOTION_DOT":-3.54e-6,"MEAN_MOTION_DDOT":0},{"OBJECT_NAME":"ONEWEB-0081","OBJECT_ID":"2020-020F","EPOCH":"2025-11-11T07:44:49.986528","MEAN_MOTION":13.11414517,"ECCENTRICITY":0.00015833,"INCLINATION":87.8863,"RA_OF_ASC_NODE":64.4459,"ARG_OF_PERICENTER":110.8255,"MEAN_ANOMALY":249.3043,"EPHEMERIS_TYPE":0,"CLASSIFICATION_TYPE":"U","NORAD_CAT_ID":45429,"ELEMENT_SET_NO":999,"REV_AT_EPOCH":27418,"BSTAR":0.00057198531,"MEAN_MOTION_DOT":2.15e-6,"MEAN_MOTION_DDOT":0},{"OBJECT_NAME":"ONEWEB-0069","OBJECT_ID":"2020-020G","EPOCH":"2025-11-11T07:28:58.580832","MEAN_MOTION":13.11414166,"ECCENTRICITY":0.0001621,"INCLINATION":87.8863,"RA_OF_ASC_NODE":64.4444,"ARG_OF_PERICENTER":104.9897,"MEAN_ANOMALY":255.141,"EPHEMERIS_TYPE":0,"CLASSIFICATION_TYPE":"U","NORAD_CAT_ID":45430,"ELEMENT_SET_NO":999,"REV_AT_EPOCH":27411,"BSTAR":0.00072877851,"MEAN_MOTION_DOT":2.71e-6,"MEAN_MOTION_DDOT":0},{"OBJECT_NAME":"ONEWEB-0031","OBJECT_ID":"2020-020H","EPOCH":"2025-11-11T06:48:40.554144","MEAN_MOTION":13.11420589,"ECCENTRICITY":0.00017946,"INCLINATION":87.8858,"RA_OF_ASC_NODE":64.4754,"ARG_OF_PERICENTER":98.1919,"MEAN_ANOMALY":261.9413,"EPHEMERIS_TYPE":0,"CLASSIFICATION_TYPE":"U","NORAD_CAT_ID":45431,"ELEMENT_SET_NO":999,"REV_AT_EPOCH":27409,"BSTAR":0.0009376205,"MEAN_MOTION_DOT":3.45e-6,"MEAN_MOTION_DDOT":0},{"OBJECT_NAME":"ONEWEB-0027","OBJECT_ID":"2020-020J","EPOCH":"2025-11-11T07:02:05.339040","MEAN_MOTION":13.17649117,"ECCENTRICITY":0.00018082,"INCLINATION":87.9139,"RA_OF_ASC_NODE":49.1672,"ARG_OF_PERICENTER":89.7366,"MEAN_ANOMALY":270.3973,"EPHEMERIS_TYPE":0,"CLASSIFICATION_TYPE":"U","NORAD_CAT_ID":45432,"ELEMENT_SET_NO":999,"REV_AT_EPOCH":27766,"BSTAR":-0.0008751975,"MEAN_MOTION_DOT":-3.27e-6,"MEAN_MOTION_DDOT":0},{"OBJECT_NAME":"ONEWEB-0064","OBJECT_ID":"2020-020K","EPOCH":"2025-11-11T06:46:14.038752","MEAN_MOTION":13.11421332,"ECCENTRICITY":0.00017364,"INCLINATION":87.8859,"RA_OF_ASC_NODE":64.4659,"ARG_OF_PERICENTER":96.6976,"MEAN_ANOMALY":263.435,"EPHEMERIS_TYPE":0,"CLASSIFICATION_TYPE":"U","NORAD_CAT_ID":45433,"ELEMENT_SET_NO":999,"REV_AT_EPOCH":27412,"BSTAR":0.00084521425,"MEAN_MOTION_DOT":3.12e-6,"MEAN_MOTION_DDOT":0},{"OBJECT_NAME":"ONEWEB-0018","OBJECT_ID":"2020-020L","EPOCH":"2025-11-11T07:32:37.041504","MEAN_MOTION":13.11413268,"ECCENTRICITY":0.00017092,"INCLINATION":87.8866,"RA_OF_ASC_NODE":64.4473,"ARG_OF_PERICENTER":106.9885,"MEAN_ANOMALY":253.143,"EPHEMERIS_TYPE":0,"CLASSIFICATION_TYPE":"U","NORAD_CAT_ID":45434,"ELEMENT_SET_NO":999,"REV_AT_EPOCH":27407,"BSTAR":0.00066374307,"MEAN_MOTION_DOT":2.48e-6,"MEAN_MOTION_DDOT":0}]
