ONEWEB-0057             
1 45160U 20008AF  25315.29950017 -.00000523  00000+0 -15359-2 0  9991
2 45160  87.8791  79.7086 0001335 103.3871 256.7405 13.10373949279816
ONEWEB-0058             
1 45161U 20008AG  25315.28636614 -.00000095  00000+0 -30933-3 0  9995
2 45161  87.8792  79.7221 0001828 101.0742 259.0591 13.10369075279882
ONEWEB-0059             
1 45162U 20008AH  25315.28292835 -.00000007  00000+0 -57036-4 0  9996
2 45162  87.8788  79.7227 0001642 102.3054 257.8258 13.10369906279786
ONEWEB-0062             
1 45163U 20008AJ  25315.30863861 -.00000424  00000+0 -12509-2 0  9990
2 45163  87.8790  79.6943 0001901  95.0526 265.0818 13.10374654279659
ONEWEB-0065             
1 45164U 20008AK  25315.05894987  .00041383  00000+0  11728+0 0  9992
2 45164  87.8774  79.7693 0000454 154.1393 205.9758 13.10788035279317
ONEWEB-0066             
1 45424U 20020A   25315.24311444 -.00000046  00000+0 -16656-3 0  9990
2 45424  87.8868  64.4623 0001628 112.0458 248.0843 13.11415680274113
ONEWEB-0067             
1 45425U 20020B   25315.28055607  .00000184  00000+0  48247-3 0  9993
2 45425  87.8866  64.3575 0001520 105.4198 254.7098 13.11418454274179
ONEWEB-0080             
1 45426U 20020C   25315.28971688  .00003083  00000+0  86559-2 0  9998
2 45426  87.8803  64.4500 0002733 114.1711 245.9703 13.11442098274148
ONEWEB-0090             
1 45427U 20020D   25315.30924243  .00000392  00000+0  10714-2 0  9997
2 45427  87.8866  64.4510 0001684 101.1566 258.9752 13.11414504274113
ONEWEB-0061             
1 45428U 20020E   25315.26501185 -.00000354  00000+0 -10334-2 0  9997
2 45428  87.8870  64.4408 0001599 104.2305 255.9001 13.11419049274062
ONEWEB-0081             
1 45429U 20020F   25315.32280077  .00000215  00000+0  57199-3 0  9994
2 45429  87.8863  64.4459 0001583 110.8255 249.3043 13.11414517274182
ONEWEB-0069             
1 45430U 20020G   25315.31178913  .00000271  00000+0  72878-3 0  9993
2 45430  87.8863  64.4444 0001621 104.9897 255.1410 13.11414166274113
ONEWEB-0031             
1 45431U 20020H   25315.28380271  .00000345  00000+0  93762-3 0  9999
2 45431  87.8858  64.4754 0001794  98.1919 261.9413 13.11420589274093
ONEWEB-0027             
1 45432U 20020J   25315.29311735 -.00000327  00000+0 -87520-3 0  9997
2 45432  87.9139  49.1672 0001808  89.7366 270.3973 13.17649117277661
ONEWEB-0064             
1 45433U 20020K   25315.28210693  .00000312  00000+0  84521-3 0  9998
2 45433  87.8859  64.4659 0001736  96.6976 263.4350 13.11421332274120
ONEWEB-0018             
1 45434U 20020L   25315.31431761  .00000248  00000+0  66374-3 0  9998
2 45434  87.8866  64.4473 0001709 106.9885 253.1430 13.11413268274075
